{
    "week": 294,
    "satellites": [
        {
            "Name": "BEIDOU-3 M13 (C32)",
            "Line1": "1 43622U 18072A   24333.58577392 -.00000040  00000+0  00000+0 0  9999",
            "Line2": "2 43622  56.1302  81.4032 0005198 290.5200  69.4051  1.86231113 42125",
            "SatelliteNumber": "43622",
            "Classification": "U",
            "LaunchYear": "18",
            "LaunchNumber": "072",
            "PieceOfLaunch": "A",
            "EpochYear": "24",
            "EpochDay": 333.58577392,
            "FirstDerivativeMeanMotion": -4e-07,
            "SecondDerivativeMeanMotion": "00000+0",
            "BSTAR": "00000+0",
            "SetNumber": "999",
            "Inclination": 56.1302,
            "RAAN": 81.4032,
            "Eccentricity": 0.0005198,
            "ArgumentOfPerigee": 290.52,
            "MeanAnomaly": 69.4051,
            "MeanMotion": 1.86231113,
            "RevolutionNumber": "4212"
        },
        {
            "Name": "BEIDOU-3 M14 (C33)",
            "Line1": "1 43623U 18072B   24332.91428828 -.00000040  00000+0  00000+0 0  9995",
            "Line2": "2 43623  56.1316  81.4189 0002613 329.2370  30.7286  1.86231103 42109",
            "SatelliteNumber": "43623",
            "Classification": "U",
            "LaunchYear": "18",
            "LaunchNumber": "072",
            "PieceOfLaunch": "B",
            "EpochYear": "24",
            "EpochDay": 332.91428828,
            "FirstDerivativeMeanMotion": -4e-07,
            "SecondDerivativeMeanMotion": "00000+0",
            "BSTAR": "00000+0",
            "SetNumber": "999",
            "Inclination": 56.1316,
            "RAAN": 81.4189,
            "Eccentricity": 0.0002613,
            "ArgumentOfPerigee": 329.237,
            "MeanAnomaly": 30.7286,
            "MeanMotion": 1.86231103,
            "RevolutionNumber": "4210"
        },
        {
            "Name": "BEIDOU-3 M16 (C35)",
            "Line1": "1 43647U 18078A   24332.53902297 -.00000077  00000+0  00000+0 0  9992",
            "Line2": "2 43647  54.5892 319.7693 0006809   7.5484 352.4663  1.86232375 41605",
            "SatelliteNumber": "43647",
            "Classification": "U",
            "LaunchYear": "18",
            "LaunchNumber": "078",
            "PieceOfLaunch": "A",
            "EpochYear": "24",
            "EpochDay": 332.53902297,
            "FirstDerivativeMeanMotion": -7.7e-07,
            "SecondDerivativeMeanMotion": "00000+0",
            "BSTAR": "00000+0",
            "SetNumber": "999",
            "Inclination": 54.5892,
            "RAAN": 319.7693,
            "Eccentricity": 0.0006809,
            "ArgumentOfPerigee": 7.5484,
            "MeanAnomaly": 352.4663,
            "MeanMotion": 1.86232375,
            "RevolutionNumber": "4160"
        },
        {
            "Name": "BEIDOU-3 M15 (C34)",
            "Line1": "1 43648U 18078B   24332.66815981 -.00000077  00000+0  00000+0 0  9990",
            "Line2": "2 43648  54.5848 319.7670 0003565   3.7402 356.2667  1.86232283 41622",
            "SatelliteNumber": "43648",
            "Classification": "U",
            "LaunchYear": "18",
            "LaunchNumber": "078",
            "PieceOfLaunch": "B",
            "EpochYear": "24",
            "EpochDay": 332.66815981,
            "FirstDerivativeMeanMotion": -7.7e-07,
            "SecondDerivativeMeanMotion": "00000+0",
            "BSTAR": "00000+0",
            "SetNumber": "999",
            "Inclination": 54.5848,
            "RAAN": 319.767,
            "Eccentricity": 0.0003565,
            "ArgumentOfPerigee": 3.7402,
            "MeanAnomaly": 356.2667,
            "MeanMotion": 1.86232283,
            "RevolutionNumber": "4162"
        },
        {
            "Name": "BEIDOU-3 G1 (C59)",
            "Line1": "1 43683U 18085A   24333.47146332 -.00000251  00000+0  00000+0 0  9998",
            "Line2": "2 43683   2.5978 103.7725 0001393  49.2455 224.5954  1.00268830 22381",
            "SatelliteNumber": "43683",
            "Classification": "U",
            "LaunchYear": "18",
            "LaunchNumber": "085",
            "PieceOfLaunch": "A",
            "EpochYear": "24",
            "EpochDay": 333.47146332,
            "FirstDerivativeMeanMotion": -2.51e-06,
            "SecondDerivativeMeanMotion": "00000+0",
            "BSTAR": "00000+0",
            "SetNumber": "999",
            "Inclination": 2.5978,
            "RAAN": 103.7725,
            "Eccentricity": 0.0001393,
            "ArgumentOfPerigee": 49.2455,
            "MeanAnomaly": 224.5954,
            "MeanMotion": 1.0026883,
            "RevolutionNumber": "2238"
        },
        {
            "Name": "BEIDOU-3 M17 (C36)",
            "Line1": "1 43706U 18093A   24332.28398389  .00000071  00000+0  00000+0 0  9991",
            "Line2": "2 43706  54.1966 201.5339 0006860 299.1251  60.9021  1.86228590 40985",
            "SatelliteNumber": "43706",
            "Classification": "U",
            "LaunchYear": "18",
            "LaunchNumber": "093",
            "PieceOfLaunch": "A",
            "EpochYear": "24",
            "EpochDay": 332.28398389,
            "FirstDerivativeMeanMotion": 7.1e-07,
            "SecondDerivativeMeanMotion": "00000+0",
            "BSTAR": "00000+0",
            "SetNumber": "999",
            "Inclination": 54.1966,
            "RAAN": 201.5339,
            "Eccentricity": 0.000686,
            "ArgumentOfPerigee": 299.1251,
            "MeanAnomaly": 60.9021,
            "MeanMotion": 1.8622859,
            "RevolutionNumber": "4098"
        },
        {
            "Name": "BEIDOU-3 M18 (C37)",
            "Line1": "1 43707U 18093B   24333.75885470  .00000087  00000+0  00000+0 0  9994",
            "Line2": "2 43707  54.1972 201.4755 0006524 338.9681  21.1081  1.86230124 41005",
            "SatelliteNumber": "43707",
            "Classification": "U",
            "LaunchYear": "18",
            "LaunchNumber": "093",
            "PieceOfLaunch": "B",
            "EpochYear": "24",
            "EpochDay": 333.7588547,
            "FirstDerivativeMeanMotion": 8.7e-07,
            "SecondDerivativeMeanMotion": "00000+0",
            "BSTAR": "00000+0",
            "SetNumber": "999",
            "Inclination": 54.1972,
            "RAAN": 201.4755,
            "Eccentricity": 0.0006524,
            "ArgumentOfPerigee": 338.9681,
            "MeanAnomaly": 21.1081,
            "MeanMotion": 1.86230124,
            "RevolutionNumber": "4100"
        },
        {
            "Name": "BEIDOU-3 IGSO-1 (C38)",
            "Line1": "1 44204U 19023A   24333.60969028 -.00000227  00000+0  00000+0 0  9994",
            "Line2": "2 44204  57.8845  43.5105 0025238 212.2760 147.9059  1.00252862 20688",
            "SatelliteNumber": "44204",
            "Classification": "U",
            "LaunchYear": "19",
            "LaunchNumber": "023",
            "PieceOfLaunch": "A",
            "EpochYear": "24",
            "EpochDay": 333.60969028,
            "FirstDerivativeMeanMotion": -2.27e-06,
            "SecondDerivativeMeanMotion": "00000+0",
            "BSTAR": "00000+0",
            "SetNumber": "999",
            "Inclination": 57.8845,
            "RAAN": 43.5105,
            "Eccentricity": 0.0025238,
            "ArgumentOfPerigee": 212.276,
            "MeanAnomaly": 147.9059,
            "MeanMotion": 1.00252862,
            "RevolutionNumber": "2068"
        },
        {
            "Name": "BEIDOU-2 G8 (C01)",
            "Line1": "1 44231U 19027A   24332.65993824 -.00000225  00000+0  00000+0 0  9991",
            "Line2": "2 44231   1.8833  74.7117 0004821 201.4855 172.8660  1.00267086 20402",
            "SatelliteNumber": "44231",
            "Classification": "U",
            "LaunchYear": "19",
            "LaunchNumber": "027",
            "PieceOfLaunch": "A",
            "EpochYear": "24",
            "EpochDay": 332.65993824,
            "FirstDerivativeMeanMotion": -2.25e-06,
            "SecondDerivativeMeanMotion": "00000+0",
            "BSTAR": "00000+0",
            "SetNumber": "999",
            "Inclination": 1.8833,
            "RAAN": 74.7117,
            "Eccentricity": 0.0004821,
            "ArgumentOfPerigee": 201.4855,
            "MeanAnomaly": 172.866,
            "MeanMotion": 1.00267086,
            "RevolutionNumber": "2040"
        },
        {
            "Name": "BEIDOU-3 IGSO-2 (C39)",
            "Line1": "1 44337U 19035A   24322.83050358 -.00000064  00000+0  00000+0 0  9993",
            "Line2": "2 44337  55.1861 163.9216 0034767 201.0257 107.1426  1.00249229 19887",
            "SatelliteNumber": "44337",
            "Classification": "U",
            "LaunchYear": "19",
            "LaunchNumber": "035",
            "PieceOfLaunch": "A",
            "EpochYear": "24",
            "EpochDay": 322.83050358,
            "FirstDerivativeMeanMotion": -6.4e-07,
            "SecondDerivativeMeanMotion": "00000+0",
            "BSTAR": "00000+0",
            "SetNumber": "999",
            "Inclination": 55.1861,
            "RAAN": 163.9216,
            "Eccentricity": 0.0034767,
            "ArgumentOfPerigee": 201.0257,
            "MeanAnomaly": 107.1426,
            "MeanMotion": 1.00249229,
            "RevolutionNumber": "1988"
        }
    ]
}